H1 CPF 01  gfz 2022 01 20 01  5201 tandemx   
H2 1003001  6202 36605    2022 01 20 00 59 42 2022 01 25 00 00 42   120 1 1  0 0 0
H9
10 0 59603  22302.000000  0   -2337805.156    943025.530   6400347.108
10 0 59603  22422.000000  0   -1453391.465    949861.153   6655635.500
10 0 59603  22542.000000  0    -543784.178    924425.947   6793979.297
10 0 59603  22662.000000  0     374583.000    866868.591   6812966.310
10 0 59603  22782.000000  0    1285137.539    778184.662   6712266.453
10 0 59603  22902.000000  0    2171465.711    660199.690   6493637.217
10 0 59603  23022.000000  0    3017607.369    515532.973   6160895.437
10 0 59603  23142.000000  0    3808344.633    347542.677   5719855.585
10 0 59603  23262.000000  0    4529478.650    160253.116   5178233.596
10 0 59603  23382.000000  0    5168089.509    -41734.877   4545518.010
10 0 59603  23502.000000  0    5712775.381   -253348.705   3832809.528
10 0 59603  23622.000000  0    6153866.349   -469160.947   3052630.034
10 0 59603  23742.000000  0    6483607.157   -683516.806   2218702.823
10 0 59603  23862.000000  0    6696301.955   -890669.246   1345707.819
10 0 59603  23982.000000  0    6788419.703  -1084918.597    449019.055
10 0 59603  24102.000000  0    6758658.802  -1260752.666   -455573.496
10 0 59603  24222.000000  0    6607964.421  -1412984.221  -1352152.047
10 0 59603  24342.000000  0    6339500.514  -1536881.498  -2224959.456
10 0 59603  24462.000000  0    5958577.174  -1628288.957  -3058683.637
10 0 59603  24582.000000  0    5472535.997  -1683735.272  -3838730.202
10 0 59603  24702.000000  0    4890597.508  -1700525.527  -4551478.590
10 0 59603  24822.000000  0    4223675.196  -1676815.874  -5184517.184
10 0 59603  24942.000000  0    3484160.083  -1611670.068  -5726853.517
10 0 59603  25062.000000  0    2685681.783  -1505096.056  -6169095.298
10 0 59603  25182.000000  0    1842853.316  -1358061.746  -6503601.977
10 0 59603  25302.000000  0     971002.301  -1172490.375  -6724606.587
10 0 59603  25422.000000  0      85894.151   -951236.805  -6828304.756
10 0 59603  25542.000000  0    -796548.153   -698044.034  -6812912.876
10 0 59603  25662.000000  0   -1660523.711   -417481.149  -6678695.529
10 0 59603  25782.000000  0   -2490630.700   -114862.603  -6427961.075
10 0 59603  25902.000000  0   -3272134.490    203849.040  -6065025.221
10 0 59603  26022.000000  0   -3991224.789    532156.186  -5596145.638
10 0 59603  26142.000000  0   -4635260.333    863153.559  -5029424.586
10 0 59603  26262.000000  0   -5192994.561   1189667.410  -4374680.987
10 0 59603  26382.000000  0   -5654780.588   1504406.287  -3643291.695
10 0 59603  26502.000000  0   -6012748.020   1800118.632  -2848002.068
10 0 59603  26622.000000  0   -6260948.862   2069753.479  -2002709.579
10 0 59603  26742.000000  0   -6395468.586   2306621.699  -1122223.162
10 0 59603  26862.000000  0   -6414498.668   2504553.534   -222001.472
10 0 59603  26982.000000  0   -6318367.242   2658047.553    682124.780
10 0 59603  27102.000000  0   -6109525.929   2762407.815   1574239.282
10 0 59603  27222.000000  0   -5792493.814   2813865.850   2438629.419
10 0 59603  27342.000000  0   -5373759.297   2809683.086   3260071.528
10 0 59603  27462.000000  0   -4861643.714   2748231.625   4024106.649
10 0 59603  27582.000000  0   -4266128.272   2629050.846   4717299.630
10 0 59603  27702.000000  0   -3598651.634   2452879.711   5327475.995
10 0 59603  27822.000000  0   -2871882.959   2221664.354   5843934.537
10 0 59603  27942.000000  0   -2099473.746   1938540.518   6257631.945
10 0 59603  28062.000000  0   -1295795.103   1607790.847   6561335.549
10 0 59603  28182.000000  0    -475666.441   1234778.645   6749742.421
10 0 59603  28302.000000  0     345917.910    825859.460   6819565.369
10 0 59603  28422.000000  0    1154061.947    388272.287   6769586.574
10 0 59603  28542.000000  0    1934236.691    -69988.012   6600677.296
10 0 59603  28662.000000  0    2672540.215   -540315.919   6315784.472
10 0 59603  28782.000000  0    3355945.824  -1013655.981   5919883.501
10 0 59603  28902.000000  0    3972534.916  -1480675.790   5419896.799
10 0 59603  29022.000000  0    4511708.939  -1931949.597   4824578.138
10 0 59603  29142.000000  0    4964377.156  -2358147.990   4144365.709
10 0 59603  29262.000000  0    5323118.607  -2750231.122   3391204.286
10 0 59603  29382.000000  0    5582312.284  -3099640.859   2578336.198
10 0 59603  29502.000000  0    5738230.812  -3398486.640   1720066.840
10 0 59603  29622.000000  0    5789097.910  -3639721.918    831509.795
10 0 59603  29742.000000  0    5735106.426  -3817305.581    -71686.549
10 0 59603  29862.000000  0    5578396.872  -3926344.112   -973622.368
10 0 59603  29982.000000  0    5322995.975  -3963210.859  -1858436.216
10 0 59603  30102.000000  0    4974717.179  -3925638.559  -2710591.887
10 0 59603  30222.000000  0    4541026.248  -3812784.690  -3515156.780
10 0 59603  30342.000000  0    4030875.862  -3625267.204  -4258066.375
10 0 59603  30462.000000  0    3454513.846  -3365170.652  -4926368.849
10 0 59603  30582.000000  0    2823270.479  -3036022.404  -5508445.913
10 0 59603  30702.000000  0    2149330.701  -2642741.409  -5994205.395
10 0 59603  30822.000000  0    1445497.202  -2191562.034  -6375245.927
10 0 59603  30942.000000  0     724946.669  -1689931.913  -6644993.167
10 0 59603  31062.000000  0        984.473  -1146386.318  -6798802.339
10 0 59603  31182.000000  0    -713196.775   -570403.506  -6834028.760
10 0 59603  31302.000000  0   -1404751.663     27757.535  -6750067.849
10 0 59603  31422.000000  0   -2061407.969    637235.517  -6548363.904
10 0 59603  31542.000000  0   -2671679.334   1246758.898  -6232387.564
10 0 59603  31662.000000  0   -3225062.337   1844849.112  -5807582.748
10 0 59603  31782.000000  0   -3712216.781   2420032.364  -5281283.637
10 0 59603  31902.000000  0   -4125127.021   2961057.885  -4662599.908
10 0 59603  32022.000000  0   -4457239.422   3457117.806  -3962269.021
10 0 59603  32142.000000  0   -4703572.172   3898064.294  -3192479.467
10 0 59603  32262.000000  0   -4860797.055   4274620.290  -2366666.332
10 0 59603  32382.000000  0   -4927289.720   4578577.696  -1499280.395
10 0 59603  32502.000000  0   -4903147.375   4802979.194   -605535.685
10 0 59603  32622.000000  0   -4790172.048   4942278.395    298861.736
10 0 59603  32742.000000  0   -4591818.092   4992473.549   1197996.987
10 0 59603  32862.000000  0   -4313107.196   4951209.905   2076036.008
10 0 59603  32982.000000  0   -3960509.508   4817848.462   2917514.246
10 0 59603  33102.000000  0   -3541796.074   4593499.708   3707616.488
10 0 59603  33222.000000  0   -3065867.420   4281022.095   4432442.754
10 0 59603  33342.000000  0   -2542562.493   3884985.576   5079255.999
10 0 59603  33462.000000  0   -1982451.628   3411600.362   5636706.228
10 0 59603  33582.000000  0   -1396619.389   2868613.363   6095026.658
10 0 59603  33702.000000  0    -796442.135   2265174.996   6446199.273
10 0 59603  33822.000000  0    -193366.552   1611680.096   6684087.407
10 0 59603  33942.000000  0     401308.004    919586.410   6804537.824
10 0 59603  34062.000000  0     976640.896    201212.303   6805448.053
10 0 59603  34182.000000  0    1522250.198   -530481.520   6686800.720
10 0 59603  34302.000000  0    2028499.287  -1262125.239   6450664.704
10 0 59603  34422.000000  0    2486666.967  -1980183.265   6101161.548
10 0 59603  34542.000000  0    2889099.475  -2671204.856   5644399.103
10 0 59603  34662.000000  0    3229341.020  -3322077.528   5088370.125
10 0 59603  34782.000000  0    3502240.118  -3920278.878   4442818.516
10 0 59603  34902.000000  0    3704031.185  -4454122.226   3719073.825
10 0 59603  35022.000000  0    3832388.031  -4912991.012   2929854.768
10 0 59603  35142.000000  0    3886448.157  -5287556.128   2089045.874
10 0 59603  35262.000000  0    3866807.313  -5569971.067   1211450.199
10 0 59603  35382.000000  0    3775483.708  -5754039.340    312522.790
10 0 59603  35502.000000  0    3615853.271  -5835349.780   -591907.988
10 0 59603  35622.000000  0    3392557.712  -5811378.215  -1485928.417
10 0 59603  35742.000000  0    3111385.290  -5681549.252  -2353828.342
10 0 59603  35862.000000  0    2779130.687  -5447259.591  -3180383.929
10 0 59603  35982.000000  0    2403435.598  -5111860.946  -3951129.987
10 0 59603  36102.000000  0    1992614.564  -4680603.705  -4652613.916
10 0 59603  36222.000000  0    1555471.768  -4160544.278  -5272626.478
10 0 59603  36342.000000  0    1101114.366  -3560419.481  -5800406.894
10 0 59603  36462.000000  0     638764.726  -2890491.520  -6226819.900
10 0 59603  36582.000000  0     177575.447  -2162366.950  -6544502.820
10 0 59603  36702.000000  0    -273548.399  -1388792.675  -6747981.671
10 0 59603  36822.000000  0    -706116.523   -583433.191  -6833756.006
10 0 59603  36942.000000  0   -1112208.497    239367.608  -6800352.342
10 0 59603  37062.000000  0   -1484615.339   1064835.819  -6648345.722
10 0 59603  37182.000000  0   -1816964.508   1878026.124  -6380350.806
10 0 59603  37302.000000  0   -2103826.718   2664085.527  -6000981.921
10 0 59603  37422.000000  0   -2340804.779   3408520.476  -5516783.212
10 0 59603  37542.000000  0   -2524601.518   4097462.650  -4936126.467
10 0 59603  37662.000000  0   -2653066.909   4717929.740  -4269078.055
10 0 59603  37782.000000  0   -2725222.221   5258075.384  -3527233.573
10 0 59603  37902.000000  0   -2741259.809   5707421.447  -2723523.909
10 0 59603  38022.000000  0   -2702519.491   6057070.674  -1871996.727
10 0 59603  38142.000000  0   -2611441.070   6299893.661   -987571.829
10 0 59603  38262.000000  0   -2471493.346   6430681.484    -85777.633
10 0 59603  38382.000000  0   -2287082.924   6446265.436    817525.104
10 0 59603  38502.000000  0   -2063442.055   6345596.704   1706433.265
10 0 59603  38622.000000  0   -1806497.718   6129778.862   2565292.141
10 0 59603  38742.000000  0   -1522727.756   5802057.228   3378978.888
99
